[{"OBJECT_NAME":"ONEWEB-0092","OBJECT_ID":"2020-020P","EPOCH":"2026-03-01T23:23:01.718880","MEAN_MOTION":13.11417394,"ECCENTRICITY":0.0001923,"INCLINATION":87.8851,"RA_OF_ASC_NODE":42.382,"ARG_OF_PERICENTER":73.9316,"MEAN_ANOMALY":286.2024,"EPHEMERIS_TYPE":0,"CLASSIFICATION_TYPE":"U","NORAD_CAT_ID":45437,"ELEMENT_SET_NO":999,"REV_AT_EPOCH":28873,"BSTAR":-0.0015659,"MEAN_MOTION_DOT":-5.42e-6,"MEAN_MOTION_DDOT":0},{"OBJECT_NAME":"ONEWEB-0085","OBJECT_ID":"2020-020Q","EPOCH":"2026-03-02T00:15:31.589856","MEAN_MOTION":13.11415703,"ECCENTRICITY":0.0001863,"INCLINATION":87.8848,"RA_OF_ASC_NODE":42.3793,"ARG_OF_PERICENTER":83.8268,"MEAN_ANOMALY":276.3072,"EPHEMERIS_TYPE":0,"CLASSIFICATION_TYPE":"U","NORAD_CAT_ID":45438,"ELEMENT_SET_NO":999,"REV_AT_EPOCH":28862,"BSTAR":0.0015538,"MEAN_MOTION_DOT":5.63e-6,"MEAN_MOTION_DDOT":0},{"OBJECT_NAME":"ONEWEB-0096","OBJECT_ID":"2020-020R","EPOCH":"2026-03-02T00:17:58.065504","MEAN_MOTION":13.11415076,"ECCENTRICITY":0.0001795,"INCLINATION":87.8857,"RA_OF_ASC_NODE":42.3667,"ARG_OF_PERICENTER":84.1707,"MEAN_ANOMALY":275.9625,"EPHEMERIS_TYPE":0,"CLASSIFICATION_TYPE":"U","NORAD_CAT_ID":45439,"ELEMENT_SET_NO":999,"REV_AT_EPOCH":28861,"BSTAR":0.0013876,"MEAN_MOTION_DOT":5.04e-6,"MEAN_MOTION_DDOT":0},{"OBJECT_NAME":"ONEWEB-0037","OBJECT_ID":"2020-020S","EPOCH":"2026-03-01T23:49:53.211936","MEAN_MOTION":13.11417457,"ECCENTRICITY":0.0001918,"INCLINATION":87.8862,"RA_OF_ASC_NODE":42.3459,"ARG_OF_PERICENTER":82.0506,"MEAN_ANOMALY":278.084,"EPHEMERIS_TYPE":0,"CLASSIFICATION_TYPE":"U","NORAD_CAT_ID":45440,"ELEMENT_SET_NO":999,"REV_AT_EPOCH":28864,"BSTAR":0.00040287,"MEAN_MOTION_DOT":1.55e-6,"MEAN_MOTION_DDOT":0},{"OBJECT_NAME":"ONEWEB-0042","OBJECT_ID":"2020-020T","EPOCH":"2026-03-02T00:03:06.717312","MEAN_MOTION":13.11417329,"ECCENTRICITY":0.0001787,"INCLINATION":87.8853,"RA_OF_ASC_NODE":42.3664,"ARG_OF_PERICENTER":82.9533,"MEAN_ANOMALY":277.1798,"EPHEMERIS_TYPE":0,"CLASSIFICATION_TYPE":"U","NORAD_CAT_ID":45441,"ELEMENT_SET_NO":999,"REV_AT_EPOCH":28861,"BSTAR":0.0011621,"MEAN_MOTION_DOT":4.25e-6,"MEAN_MOTION_DDOT":0},{"OBJECT_NAME":"ONEWEB-0098","OBJECT_ID":"2020-020U","EPOCH":"2026-03-01T23:57:12.580128","MEAN_MOTION":13.11416845,"ECCENTRICITY":0.0001915,"INCLINATION":87.8851,"RA_OF_ASC_NODE":42.3787,"ARG_OF_PERICENTER":86.6438,"MEAN_ANOMALY":273.4909,"EPHEMERIS_TYPE":0,"CLASSIFICATION_TYPE":"U","NORAD_CAT_ID":45442,"ELEMENT_SET_NO":999,"REV_AT_EPOCH":28859,"BSTAR":0.00081673,"MEAN_MOTION_DOT":3.02e-6,"MEAN_MOTION_DDOT":0},{"OBJECT_NAME":"ONEWEB-0055","OBJECT_ID":"2020-020V","EPOCH":"2026-03-01T23:32:47.650848","MEAN_MOTION":13.11417821,"ECCENTRICITY":0.0001884,"INCLINATION":87.8851,"RA_OF_ASC_NODE":42.3819,"ARG_OF_PERICENTER":86.2898,"MEAN_ANOMALY":273.8445,"EPHEMERIS_TYPE":0,"CLASSIFICATION_TYPE":"U","NORAD_CAT_ID":45443,"ELEMENT_SET_NO":999,"REV_AT_EPOCH":28856,"BSTAR":-0.0012265,"MEAN_MOTION_DOT":-4.22e-6,"MEAN_MOTION_DDOT":0},{"OBJECT_NAME":"ONEWEB-0093","OBJECT_ID":"2020-020W","EPOCH":"2026-03-02T04:27:11.172672","MEAN_MOTION":13.11413942,"ECCENTRICITY":0.0001465,"INCLINATION":87.8856,"RA_OF_ASC_NODE":42.3307,"ARG_OF_PERICENTER":78.6628,"MEAN_ANOMALY":281.4664,"EPHEMERIS_TYPE":0,"CLASSIFICATION_TYPE":"U","NORAD_CAT_ID":45444,"ELEMENT_SET_NO":999,"REV_AT_EPOCH":28865,"BSTAR":-0.00031508,"MEAN_MOTION_DOT":-9.9e-7,"MEAN_MOTION_DDOT":0},{"OBJECT_NAME":"ONEWEB-0029","OBJECT_ID":"2020-020X","EPOCH":"2026-03-01T23:20:34.589184","MEAN_MOTION":13.11416081,"ECCENTRICITY":0.0001708,"INCLINATION":87.8851,"RA_OF_ASC_NODE":42.3851,"ARG_OF_PERICENTER":85.6804,"MEAN_ANOMALY":274.4519,"EPHEMERIS_TYPE":0,"CLASSIFICATION_TYPE":"U","NORAD_CAT_ID":45445,"ELEMENT_SET_NO":999,"REV_AT_EPOCH":28860,"BSTAR":-0.0015041,"MEAN_MOTION_DOT":-5.2e-6,"MEAN_MOTION_DDOT":0},{"OBJECT_NAME":"ONEWEB-0068","OBJECT_ID":"2020-020Y","EPOCH":"2026-03-02T04:26:47.204448","MEAN_MOTION":13.11414426,"ECCENTRICITY":0.0001687,"INCLINATION":87.8858,"RA_OF_ASC_NODE":42.3331,"ARG_OF_PERICENTER":86.1963,"MEAN_ANOMALY":273.9358,"EPHEMERIS_TYPE":0,"CLASSIFICATION_TYPE":"U","NORAD_CAT_ID":45446,"ELEMENT_SET_NO":999,"REV_AT_EPOCH":28857,"BSTAR":-0.00019859,"MEAN_MOTION_DOT":-5.8e-7,"MEAN_MOTION_DDOT":0},{"OBJECT_NAME":"ONEWEB-0046","OBJECT_ID":"2020-020Z","EPOCH":"2026-03-02T00:35:02.821344","MEAN_MOTION":13.11413079,"ECCENTRICITY":0.0001738,"INCLINATION":87.8856,"RA_OF_ASC_NODE":42.372,"ARG_OF_PERICENTER":78.0088,"MEAN_ANOMALY":282.1234,"EPHEMERIS_TYPE":0,"CLASSIFICATION_TYPE":"U","NORAD_CAT_ID":45447,"ELEMENT_SET_NO":999,"REV_AT_EPOCH":28856,"BSTAR":0.00035114,"MEAN_MOTION_DOT":1.37e-6,"MEAN_MOTION_DDOT":0},{"OBJECT_NAME":"ONEWEB-0063","OBJECT_ID":"2020-020AA","EPOCH":"2026-03-01T23:26:40.531200","MEAN_MOTION":13.11416785,"ECCENTRICITY":0.0001894,"INCLINATION":87.8855,"RA_OF_ASC_NODE":42.379,"ARG_OF_PERICENTER":76.938,"MEAN_ANOMALY":283.1959,"EPHEMERIS_TYPE":0,"CLASSIFICATION_TYPE":"U","NORAD_CAT_ID":45448,"ELEMENT_SET_NO":999,"REV_AT_EPOCH":28864,"BSTAR":-0.0015017,"MEAN_MOTION_DOT":-5.2e-6,"MEAN_MOTION_DDOT":0},{"OBJECT_NAME":"ONEWEB-0019","OBJECT_ID":"2020-020AB","EPOCH":"2026-03-02T04:02:22.668288","MEAN_MOTION":13.11414593,"ECCENTRICITY":0.0001971,"INCLINATION":87.8844,"RA_OF_ASC_NODE":42.3358,"ARG_OF_PERICENTER":88.3844,"MEAN_ANOMALY":271.7509,"EPHEMERIS_TYPE":0,"CLASSIFICATION_TYPE":"U","NORAD_CAT_ID":45449,"ELEMENT_SET_NO":999,"REV_AT_EPOCH":28851,"BSTAR":0.0014935,"MEAN_MOTION_DOT":5.42e-6,"MEAN_MOTION_DDOT":0},{"OBJECT_NAME":"ONEWEB-0094","OBJECT_ID":"2020-020AC","EPOCH":"2026-03-01T23:32:42.948096","MEAN_MOTION":13.1765188,"ECCENTRICITY":0.0001743,"INCLINATION":87.9147,"RA_OF_ASC_NODE":27.1279,"ARG_OF_PERICENTER":87.2961,"MEAN_ANOMALY":272.837,"EPHEMERIS_TYPE":0,"CLASSIFICATION_TYPE":"U","NORAD_CAT_ID":45450,"ELEMENT_SET_NO":999,"REV_AT_EPOCH":29219,"BSTAR":-0.00011295,"MEAN_MOTION_DOT":-3.1e-7,"MEAN_MOTION_DDOT":0},{"OBJECT_NAME":"ONEWEB-0087","OBJECT_ID":"2020-020AD","EPOCH":"2026-03-01T23:41:07.834272","MEAN_MOTION":13.11417343,"ECCENTRICITY":0.0001561,"INCLINATION":87.8862,"RA_OF_ASC_NODE":42.3429,"ARG_OF_PERICENTER":87.7598,"MEAN_ANOMALY":272.3708,"EPHEMERIS_TYPE":0,"CLASSIFICATION_TYPE":"U","NORAD_CAT_ID":45451,"ELEMENT_SET_NO":999,"REV_AT_EPOCH":28853,"BSTAR":-0.00077519,"MEAN_MOTION_DOT":-2.62e-6,"MEAN_MOTION_DDOT":0},{"OBJECT_NAME":"ONEWEB-0082","OBJECT_ID":"2020-020AE","EPOCH":"2026-03-01T23:36:26.591040","MEAN_MOTION":13.11417797,"ECCENTRICITY":0.0001658,"INCLINATION":87.886,"RA_OF_ASC_NODE":42.368,"ARG_OF_PERICENTER":87.9896,"MEAN_ANOMALY":272.1422,"EPHEMERIS_TYPE":0,"CLASSIFICATION_TYPE":"U","NORAD_CAT_ID":45452,"ELEMENT_SET_NO":999,"REV_AT_EPOCH":28862,"BSTAR":-0.0009253,"MEAN_MOTION_DOT":-3.15e-6,"MEAN_MOTION_DDOT":0},{"OBJECT_NAME":"ONEWEB-0050","OBJECT_ID":"2020-020AF","EPOCH":"2026-03-02T00:50:03.676992","MEAN_MOTION":14.8996751,"ECCENTRICITY":0.0004124,"INCLINATION":88.9192,"RA_OF_ASC_NODE":247.8035,"ARG_OF_PERICENTER":38.6627,"MEAN_ANOMALY":321.4897,"EPHEMERIS_TYPE":0,"CLASSIFICATION_TYPE":"U","NORAD_CAT_ID":45453,"ELEMENT_SET_NO":999,"REV_AT_EPOCH":32442,"BSTAR":0.00021086,"MEAN_MOTION_DOT":2.052e-5,"MEAN_MOTION_DDOT":0}]
