ONEWEB-0092             
1 45437U 20020P   26060.97432545 -.00000542  00000+0 -15659-2 0  9990
2 45437  87.8851  42.3820 0001923  73.9316 286.2024 13.11417394288731
ONEWEB-0085             
1 45438U 20020Q   26061.01078229  .00000563  00000+0  15538-2 0  9999
2 45438  87.8848  42.3793 0001863  83.8268 276.3072 13.11415703288629
ONEWEB-0096             
1 45439U 20020R   26061.01247761  .00000504  00000+0  13876-2 0  9997
2 45439  87.8857  42.3667 0001795  84.1707 275.9625 13.11415076288617
ONEWEB-0037             
1 45440U 20020S   26060.99297699  .00000155  00000+0  40287-3 0  9999
2 45440  87.8862  42.3459 0001918  82.0506 278.0840 13.11417457288646
ONEWEB-0042             
1 45441U 20020T   26061.00216108  .00000425  00000+0  11621-2 0  9998
2 45441  87.8853  42.3664 0001787  82.9533 277.1798 13.11417329288615
ONEWEB-0098             
1 45442U 20020U   26060.99806227  .00000302  00000+0  81673-3 0  9992
2 45442  87.8851  42.3787 0001915  86.6438 273.4909 13.11416845288590
ONEWEB-0055             
1 45443U 20020V   26060.98110707 -.00000422  00000+0 -12265-2 0  9998
2 45443  87.8851  42.3819 0001884  86.2898 273.8445 13.11417821288569
ONEWEB-0093             
1 45444U 20020W   26061.18554598 -.00000099  00000+0 -31508-3 0  9994
2 45444  87.8856  42.3307 0001465  78.6628 281.4664 13.11413942288656
ONEWEB-0029             
1 45445U 20020X   26060.97262256 -.00000520  00000+0 -15041-2 0  9990
2 45445  87.8851  42.3851 0001708  85.6804 274.4519 13.11416081288603
ONEWEB-0068             
1 45446U 20020Y   26061.18526857 -.00000058  00000+0 -19859-3 0  9993
2 45446  87.8858  42.3331 0001687  86.1963 273.9358 13.11414426288574
ONEWEB-0046             
1 45447U 20020Z   26061.02433821  .00000137  00000+0  35114-3 0  9993
2 45447  87.8856  42.3720 0001738  78.0088 282.1234 13.11413079288567
ONEWEB-0063             
1 45448U 20020AA  26060.97685800 -.00000520  00000+0 -15017-2 0  9990
2 45448  87.8855  42.3790 0001894  76.9380 283.1959 13.11416785288640
ONEWEB-0019             
1 45449U 20020AB  26061.16831792  .00000542  00000+0  14935-2 0  9996
2 45449  87.8844  42.3358 0001971  88.3844 271.7509 13.11414593288512
ONEWEB-0094             
1 45450U 20020AC  26060.98105264 -.00000031  00000+0 -11295-3 0  9997
2 45450  87.9147  27.1279 0001743  87.2961 272.8370 13.17651880292194
ONEWEB-0087             
1 45451U 20020AD  26060.98689623 -.00000262  00000+0 -77519-3 0  9991
2 45451  87.8862  42.3429 0001561  87.7598 272.3708 13.11417343288534
ONEWEB-0082             
1 45452U 20020AE  26060.98364110 -.00000315  00000+0 -92530-3 0  9992
2 45452  87.8860  42.3680 0001658  87.9896 272.1422 13.11417797288626
ONEWEB-0050             
1 45453U 20020AF  26061.03476478  .00002052  00000+0  21086-3 0  9997
2 45453  88.9192 247.8035 0004124  38.6627 321.4897 14.89967510324421
